#cP2016  1 31 18  0  0.00000000     192 ORBIT IGb08 HLM  IGS
## 1882  64800.00000000   900.00000000 57418 0.7500000000000
+   30   G01G02G03G05G06G07G08G09G10G11G12G13G14G15G16G17G18
+        G19G20G21G22G23G24G25G26G27G28G29G30G31  0  0  0  0
+          0  0  0  0  0  0  0  0  0  0  0  0  0  0  0  0  0
+          0  0  0  0  0  0  0  0  0  0  0  0  0  0  0  0  0
+          0  0  0  0  0  0  0  0  0  0  0  0  0  0  0  0  0
++         6  4  4  4  4  4  4  3  4  5  4  4  4  4  4  4  4
++         4  4  4  4  4  4  4  5  4  4  4  4  4  0  0  0  0
++         0  0  0  0  0  0  0  0  0  0  0  0  0  0  0  0  0
++         0  0  0  0  0  0  0  0  0  0  0  0  0  0  0  0  0
++         0  0  0  0  0  0  0  0  0  0  0  0  0  0  0  0  0
%c G  cc GPS ccc cccc cccc cccc cccc ccccc ccccc ccccc ccccc
%c cc cc ccc ccc cccc cccc cccc cccc ccccc ccccc ccccc ccccc
%f  1.2500000  1.025000000  0.00000000000  0.000000000000000
%f  0.0000000  0.000000000  0.00000000000  0.000000000000000
%i    0    0    0    0      0      0      0      0         0
%i    0    0    0    0      0      0      0      0         0
/* ULTRA ORBIT COMBINATION 18821_18 (57419.750) FROM:       
/* cou emu esu gfu usu whu                                  
/* REFERENCED TO emu CLOCK AND TO WEIGHTED MEAN POLE:       
/* PCV:IGS08_1881 OL/AL:FES2004  NONE     Y  ORB:CMB CLK:CMB
*  2016  2  1  3 45  0.00000000
PG01  13951.282987 -21700.297410   5745.377058     10.575217 11  8 13           
PG02 -16495.318880   1826.242417 -20235.637849    599.483557  6  5  7 211       
PG03  17414.291501 -12861.736087 -15400.161746    -18.948313 10  9 10 244       
PG05 -26535.828640   1957.798346  -1865.386295   -150.158882 11  8 12 178       
PG06 -10314.677226 -12722.943196 -20902.716428    138.353503 10  9  8           
PG07   3992.800549 -24292.169315   9571.200234    471.493111  6  6  9 177       
PG08  14354.285762  -5959.331184  21596.031427    -22.178660  2 10 10 208       
PG09  -4768.185993 -22336.735834 -13568.003561     61.606411  8  9  8 147       
PG10  14612.565233  11621.193656  18918.100717     47.504301  9  5 10 288       
PG11  11414.980056 -19706.248430  13072.260982   -630.093781  6 11  8 190       
PG12 -20814.916150   9931.194644 -13091.179899    364.967665 10 10 11 221       
PG13 -17484.598567  -3656.466540  19488.785877   -182.311774  9  9  8 208       
PG14  14795.412367  22115.013145  -1096.103270      5.750827  6     5 217       
PG15 -12143.210223  10101.194380  21230.691284   -295.034740  8  9  5 167       
PG16  26682.174039    293.668026  -2276.168703    -43.524288  7 10  8 205       
PG17 -14745.397943 -22222.013793    252.232204   -199.936434  7  7  2 199       
PG18   2186.624229  16086.576618  21540.032147    478.886134 10  9  9 221       
PG19 -16237.432637 -20171.621895  -5092.950711   -524.692444  8  8  7 215       
PG20 -19608.323367  13129.124050  12088.235572    389.710055 11 12 10 212       
PG21    695.638851  23466.589718  12868.072894   -508.193822  9  8 10 182       
PG22  24996.428392   3234.540488   8902.030690    403.755765  9  9  9 200       
PG23   6181.458684 -15932.278811 -20051.195981   -157.822605  8 10  5  90       
PG24 -14893.043563  20071.023097   8653.666997    -11.643297  3  8 11 194       
PG25  -8112.582162  14828.945567 -20540.030993   -109.233051  7  8  8 206       
PG26  23043.813308   5649.763222 -11972.815570   -235.642261  9  7  8 156       
PG27  19049.365345   5056.181261  17853.431891     58.628548  5  8  6 131       
PG28 -13147.191879 -12614.800920  19979.620000    499.303662  9 11  8 232       
PG29   1250.091900  21321.189680 -15796.359187    653.228221  8 11  9 230       
PG30  -3816.507617 -19571.357924  17500.478229     91.208400  8  8  8 165       
PG31  11201.575589  10547.720722 -21489.791774    284.592810  6  4  8 220       
*  2016  2  1  4  0  0.00000000
PG01  13873.959826 -20840.492783   8462.121286     10.576041 10  4 12           
PG02 -15765.085607   -517.614611 -20907.548033    599.483622  5  5  6 211       
PG03  19064.376966 -12908.944933 -13258.469689    -18.952672 10 10 10 243       
PG05 -26219.990371   1626.714284  -4648.250609   -150.155531 11  8 11 184       
PG06  -9379.772600 -14864.824952 -19907.075065    138.358927  9  9  7           
PG07   4581.993770 -25058.173580   6892.498092    471.491626  6  6 10 175       
PG08  15831.314919  -4035.738683  21000.231092    -22.180042  4  9 10 210       
PG09  -3565.886058 -21158.723738 -15666.867460     61.613351  8 10  8 140       
PG10  12421.098455  12065.975068  20160.430935     47.501923  9  6 10 287       
PG11  11724.847707 -17987.745514  15049.524109   -630.095466  4 10  7 186       
PG12 -22167.315926   9905.795542 -10618.360542    364.969610  9 10 10 218       
PG13 -18530.707025  -5563.941870  18018.184410   -182.314055  9  9  7 208       
PG14  14595.659950  22236.895704   1757.946455      5.748505  6  4  5 221       
PG15 -13767.676540   8260.547779  21066.794573   -295.036761  7  9  5 172       
PG16  26285.887715    462.039043  -5127.005543    -43.521450  7 10  8 200       
PG17 -14493.776323 -22211.595522   3116.036742   -199.936678  7  7    199       
PG18   -143.157926  16465.074530  21334.584660    478.889762  9  9  9 223       
PG19 -16245.564091 -20640.843995  -2231.262704   -524.692665  7  7  7 221       
PG20 -20916.598543  13121.814367   9704.346871    389.712205 11 12 10 211       
PG21      2.623226  24545.676837  10496.399725   -508.195803  9  8 10 179       
PG22  23936.508330   3727.618448  11335.780687    403.750455  8  8  8 206       
PG23   7749.454982 -14124.911100 -20876.914890   -157.824574  7  9  5 135       
PG24 -14742.251217  18902.091048  11180.716335    -11.643074  3  8 11 187       
PG25 -10361.969508  15064.982878 -19297.044583   -109.238926  6  8  8 205       
PG26  21592.432103   6077.777305 -14247.977396   -235.656864 10  8  7 167       
PG27  20150.498093   6654.260723  16043.107602     58.631634  6  6  5 148       
PG28 -10937.599771 -12831.487473  21171.677506    499.305827  9 10  7 235       
PG29     35.006164  19837.556807 -17662.401204    653.228942  8 11  9 232       
PG30  -2830.448669 -21210.130009  15677.288828     91.212465  8  8  8 165       
PG31  10162.117500  12761.883946 -20765.808685    284.591365  5  6  9 221       
*  2016  2  1  4 15  0.00000000
PG01  13745.612514 -19692.284994  11031.026618     10.577072 10  2 11           
PG02 -15132.944024  -2943.965488 -21204.297116    599.483714  5  6  5 216       
PG03  20459.881284 -12989.626680 -10888.810479    -18.956993 10 10 10 240       
PG05 -25619.918785   1214.766201  -7352.170798   -150.152314 10  8 11 188       
PG06  -8599.865543 -16927.149583 -18568.732250    138.364354  6  8  7           
PG07   5027.077256 -25559.734839   4092.879407    471.490288  6  6  9 138       
PG08  17348.462838  -2257.134474  20044.975568    -22.182386  4  8 10 205       
PG09  -2156.019704 -19879.170981 -17496.355960     61.620402  8 10  8 180       
PG10  10137.044544  12649.317394  21056.492874     47.499576  9  7  9 287       
PG11  12114.136261 -16070.504146  16757.609489   -630.097205  5 11  7 223       
PG12 -23231.891407   9910.021456  -7961.568746    364.972296  8 10 10 216       
PG13 -19569.765024  -7261.125402  16233.236685   -182.316301  8  9  7 208       
PG14  14209.817353  22113.890834   4582.089244      5.746459  7  6  5 223       
PG15 -15447.027635   6529.071248  20537.423836   -295.038110  6  8  5 157       
PG16  25587.490634    696.583424  -7891.800650    -43.518487  7 11  8 194       
PG17 -14041.941041 -21966.370620   5927.102299   -199.937504  6  7  2 195       
PG18  -2414.731952  16945.255975  20777.681732    478.893139  9  8 10 220       
PG19 -16081.563811 -20845.320442    669.675075   -524.692938  7  7  6 224       
PG20 -21955.249781  13098.320568   7152.862464    389.714546 10 12 11 208       
PG21   -563.528049  25396.525766   7946.866588   -508.197691  9  8 11 179       
PG22  22647.502142   4328.217055  13578.475220    403.745840  8  9  8 207       
PG23   9450.214767 -12344.508043 -21335.634760   -157.826016  8  8  6 174       
PG24 -14569.067763  17463.411898  13512.945964    -11.643744  3  8 10 181       
PG25 -12440.898987  15391.445733 -17722.890843   -109.244748  5  8  8 208       
PG26  19927.044449   6632.222415 -16278.316910   -235.671387 10  9  7 179       
PG27  21187.994605   8026.311893  13958.008248     58.634792  5  5  3 100       
PG28  -8634.809346 -13191.008876  22019.396110    499.308536  8 10  6 235       
PG29  -1381.034309  18270.441149 -19224.530901    653.229763  8 12  9 234       
PG30  -2012.706727 -22691.859363  13583.286319     91.216576  7  9  8 143       
PG31   9276.536878  14933.761047 -19678.297703    284.589932  5  7  9 218       
EOF
